{
  "type": "FeatureCollection",
  "features": [
    {
      "type": "Feature",
      "properties": {
        "norad_id": 44334,
        "name": "EUTELSAT 7C",
        "group": "eutelsat",
        "lat": -0.045660126928071844,
        "lon": 51.200099744319274,
        "alt_km": 35798.38772597735,
        "timestamp": "2025-12-24T20:42:20.691195+00:00",
        "meta_object_name": "EUTELSAT 7C",
        "meta_object_id": "2019-034B",
        "meta_epoch": "2025-12-24T06:17:06.804384",
        "meta_mean_motion": 1.00270713,
        "meta_eccentricity": 0.0003166,
        "meta_inclination": 0.0725,
        "meta_ra_of_asc_node": 178.058,
        "meta_arg_of_pericenter": 78.9568,
        "meta_mean_anomaly": 297.2777,
        "meta_ephemeris_type": 0,
        "meta_classification_type": "U",
        "meta_norad_cat_id": 44334,
        "meta_element_set_no": 999,
        "meta_rev_at_epoch": 508,
        "meta_bstar": 0,
        "meta_mean_motion_dot": 6.9e-07,
        "meta_mean_motion_ddot": 0,
        "tle_line1": "1 44334U 19034B   25358.26188431  .00000069  00000+0  00000+0 0  9994",
        "tle_line2": "2 44334   0.0725 178.0580 0003166  78.9568 297.2777  1.00270713  5087"
      },
      "geometry": {
        "type": "Point",
        "coordinates": [
          51.200099744319274,
          -0.045660126928071844
        ]
      }
    },
    {
      "type": "Feature",
      "properties": {
        "norad_id": 44624,
        "name": "EUTELSAT 5 WEST B",
        "group": "eutelsat",
        "lat": 0.0637959697352532,
        "lon": 39.24145420861419,
        "alt_km": 35794.13335188267,
        "timestamp": "2025-12-24T20:42:20.691207+00:00",
        "meta_object_name": "EUTELSAT 5 WEST B",
        "meta_object_id": "2019-067A",
        "meta_epoch": "2025-12-24T06:13:37.139232",
        "meta_mean_motion": 1.00271324,
        "meta_eccentricity": 0.00031173,
        "meta_inclination": 0.0638,
        "meta_ra_of_asc_node": 342.4583,
        "meta_arg_of_pericenter": 289.7329,
        "meta_mean_anomaly": 269.2531,
        "meta_ephemeris_type": 0,
        "meta_classification_type": "U",
        "meta_norad_cat_id": 44624,
        "meta_element_set_no": 999,
        "meta_rev_at_epoch": 2268,
        "meta_bstar": 0,
        "meta_mean_motion_dot": -2.1e-07,
        "meta_mean_motion_ddot": 0,
        "tle_line1": "1 44624U 19067A   25358.25945763 -.00000021  00000+0  00000+0 0  9999",
        "tle_line2": "2 44624   0.0638 342.4583 0003117 289.7329 269.2531  1.00271324 22686"
      },
      "geometry": {
        "type": "Point",
        "coordinates": [
          39.24145420861419,
          0.0637959697352532
        ]
      }
    },
    {
      "type": "Feature",
      "properties": {
        "norad_id": 45027,
        "name": "EUTELSAT KONNECT",
        "group": "eutelsat",
        "lat": -0.03396178733454713,
        "lon": 51.41891916959906,
        "alt_km": 35790.62167395312,
        "timestamp": "2025-12-24T20:42:20.691219+00:00",
        "meta_object_name": "EUTELSAT KONNECT",
        "meta_object_id": "2020-005B",
        "meta_epoch": "2025-12-24T06:17:06.804384",
        "meta_mean_motion": 1.00268571,
        "meta_eccentricity": 0.00013512,
        "meta_inclination": 0.0698,
        "meta_ra_of_asc_node": 94.2648,
        "meta_arg_of_pericenter": 187.1858,
        "meta_mean_anomaly": 273.0694,
        "meta_ephemeris_type": 0,
        "meta_classification_type": "U",
        "meta_norad_cat_id": 45027,
        "meta_element_set_no": 999,
        "meta_rev_at_epoch": 2258,
        "meta_bstar": 0,
        "meta_mean_motion_dot": 7e-07,
        "meta_mean_motion_ddot": 0,
        "tle_line1": "1 45027U 20005B   25358.26188431  .00000070  00000+0  00000+0 0  9996",
        "tle_line2": "2 45027   0.0698  94.2648 0001351 187.1858 273.0694  1.00268571 22582"
      },
      "geometry": {
        "type": "Point",
        "coordinates": [
          51.41891916959906,
          -0.03396178733454713
        ]
      }
    },
    {
      "type": "Feature",
      "properties": {
        "norad_id": 49056,
        "name": "EUTELSAT QUANTUM",
        "group": "eutelsat",
        "lat": 0.03255572233370563,
        "lon": 91.91951396731797,
        "alt_km": 35800.63284770809,
        "timestamp": "2025-12-24T20:42:20.691230+00:00",
        "meta_object_name": "EUTELSAT QUANTUM",
        "meta_object_id": "2021-069B",
        "meta_epoch": "2025-12-24T06:09:38.613888",
        "meta_mean_motion": 1.00270764,
        "meta_eccentricity": 0.00034372,
        "meta_inclination": 0.011,
        "meta_ra_of_asc_node": 11.2184,
        "meta_arg_of_pericenter": 270.6247,
        "meta_mean_anomaly": 311.3053,
        "meta_ephemeris_type": 0,
        "meta_classification_type": "U",
        "meta_norad_cat_id": 49056,
        "meta_element_set_no": 999,
        "meta_rev_at_epoch": 1617,
        "meta_bstar": 0,
        "meta_mean_motion_dot": 1.47e-06,
        "meta_mean_motion_ddot": 0,
        "tle_line1": "1 49056U 21069B   25358.25669692  .00000147  00000+0  00000+0 0  9990",
        "tle_line2": "2 49056   0.0110  11.2184 0003437 270.6247 311.3053  1.00270764 16178"
      },
      "geometry": {
        "type": "Point",
        "coordinates": [
          91.91951396731797,
          0.03255572233370563
        ]
      }
    },
    {
      "type": "Feature",
      "properties": {
        "norad_id": 53765,
        "name": "EUTELSAT KONNECT VHTS",
        "group": "eutelsat",
        "lat": -0.03321968808860208,
        "lon": 46.9407255547102,
        "alt_km": 35797.0212549498,
        "timestamp": "2025-12-24T20:42:20.691241+00:00",
        "meta_object_name": "EUTELSAT KONNECT VHTS",
        "meta_object_id": "2022-110A",
        "meta_epoch": "2025-12-24T06:15:51.924096",
        "meta_mean_motion": 1.00267334,
        "meta_eccentricity": 0.0002471,
        "meta_inclination": 0.0589,
        "meta_ra_of_asc_node": 98.5782,
        "meta_arg_of_pericenter": 149.6286,
        "meta_mean_anomaly": 301.5264,
        "meta_ephemeris_type": 0,
        "meta_classification_type": "U",
        "meta_norad_cat_id": 53765,
        "meta_element_set_no": 999,
        "meta_rev_at_epoch": 507,
        "meta_bstar": 0,
        "meta_mean_motion_dot": 3.8e-07,
        "meta_mean_motion_ddot": 0,
        "tle_line1": "1 53765U 22110A   25358.26101764  .00000038  00000+0  00000+0 0  9991",
        "tle_line2": "2 53765   0.0589  98.5782 0002471 149.6286 301.5264  1.00267334  5078"
      },
      "geometry": {
        "type": "Point",
        "coordinates": [
          46.9407255547102,
          -0.03321968808860208
        ]
      }
    },
    {
      "type": "Feature",
      "properties": {
        "norad_id": 54048,
        "name": "EUTELSAT HOTBIRD 13F",
        "group": "eutelsat",
        "lat": 0.05424510441002753,
        "lon": 57.22221417598944,
        "alt_km": 35781.099616930594,
        "timestamp": "2025-12-24T20:42:20.691253+00:00",
        "meta_object_name": "EUTELSAT HOTBIRD 13F",
        "meta_object_id": "2022-134A",
        "meta_epoch": "2025-12-24T02:30:38.546784",
        "meta_mean_motion": 1.00269795,
        "meta_eccentricity": 0.00023884,
        "meta_inclination": 0.0563,
        "meta_ra_of_asc_node": 288.8517,
        "meta_arg_of_pericenter": 71.396,
        "meta_mean_anomaly": 143.2903,
        "meta_ephemeris_type": 0,
        "meta_classification_type": "U",
        "meta_norad_cat_id": 54048,
        "meta_element_set_no": 999,
        "meta_rev_at_epoch": 1162,
        "meta_bstar": 0,
        "meta_mean_motion_dot": 1.08e-06,
        "meta_mean_motion_ddot": 0,
        "tle_line1": "1 54048U 22134A   25358.10461281  .00000108  00000+0  00000+0 0  9996",
        "tle_line2": "2 54048   0.0563 288.8517 0002388  71.3960 143.2903  1.00269795 11624"
      },
      "geometry": {
        "type": "Point",
        "coordinates": [
          57.22221417598944,
          0.05424510441002753
        ]
      }
    },
    {
      "type": "Feature",
      "properties": {
        "norad_id": 54225,
        "name": "EUTELSAT HOTBIRD 13G",
        "group": "eutelsat",
        "lat": 0.016062782879660623,
        "lon": 57.179547174528516,
        "alt_km": 35790.192101016524,
        "timestamp": "2025-12-24T20:42:20.691265+00:00",
        "meta_object_name": "EUTELSAT HOTBIRD 13G",
        "meta_object_id": "2022-146A",
        "meta_epoch": "2025-12-24T00:28:38.654112",
        "meta_mean_motion": 1.00268836,
        "meta_eccentricity": 0.00017131,
        "meta_inclination": 0.0535,
        "meta_ra_of_asc_node": 227.8066,
        "meta_arg_of_pericenter": 307.349,
        "meta_mean_anomaly": 297.8001,
        "meta_ephemeris_type": 0,
        "meta_classification_type": "U",
        "meta_norad_cat_id": 54225,
        "meta_element_set_no": 999,
        "meta_rev_at_epoch": 571,
        "meta_bstar": 0,
        "meta_mean_motion_dot": 1.08e-06,
        "meta_mean_motion_ddot": 0,
        "tle_line1": "1 54225U 22146A   25358.01989183  .00000108  00000+0  00000+0 0  9992",
        "tle_line2": "2 54225   0.0535 227.8066 0001713 307.3490 297.8001  1.00268836  5716"
      },
      "geometry": {
        "type": "Point",
        "coordinates": [
          57.179547174528516,
          0.016062782879660623
        ]
      }
    }
  ]
}